OBJECT_NAME,OBJECT_ID,EPOCH,MEAN_MOTION,ECCENTRICITY,INCLINATION,RA_OF_ASC_NODE,ARG_OF_PERICENTER,MEAN_ANOMALY,EPHEMERIS_TYPE,CLASSIFICATION_TYPE,NORAD_CAT_ID,ELEMENT_SET_NO,REV_AT_EPOCH,BSTAR,MEAN_MOTION_DOT,MEAN_MOTION_DDOT
NUSANTARA TIGA (SATRIA),2023-086A,2026-06-18T23:52:54.455808,1.00268106,.0003095,0.0358,355.6492,351.8666,63.9333,0,U,57045,999,977,0,-.242E-5,0
H2SAT (HEINRICH HERTZ),2023-093A,2026-06-18T14:38:12.691104,1.00270922,.00008425,0.0587,104.5799,91.9025,290.6226,0,U,57213,999,1093,0,-.4E-7,0
SYRACUSE 4B,2023-093B,2026-06-19T02:34:44.990688,1.00269493,.00002491,0.0179,27.8668,148.0958,123.6146,0,U,57214,999,698,0,-.6E-6,0
JUPITER 3 (ECHOSTAR 24),2023-108A,2026-06-18T12:33:51.753888,1.00268776,.00012666,0.0215,355.2271,87.4858,277.3015,0,U,57479,999,1065,0,0,0
GALAXY 37 (G-37),2023-112A,2026-06-19T07:47:50.634240,1.00271185,.0002005,0.0039,36.6791,49.2765,171.5512,0,U,57493,999,1056,0,.42E-6,0
LUDI TANCE-4 01A,2023-120A,2026-06-18T01:22:16.786272,1.00268641,.00011505,15.1019,193.9396,43.3474,139.2590,0,U,57624,999,1055,0,-.18E-5,0
TJS-10,2023-169A,2026-06-17T19:12:58.321728,1.00274368,.0003814,2.5467,80.4827,110.1676,96.0447,0,U,58204,999,954,0,-.256E-5,0
ZHONGXING-6E,2023-172A,2026-06-19T01:26:52.797120,1.00270491,.00027696,0.0431,89.4389,352.4664,322.6307,0,U,58253,999,967,0,-.368E-5,0
YAOGAN-41,2023-197A,2026-06-19T06:37:04.032768,1.00269196,.00140458,3.1241,313.1887,193.6574,343.1097,0,U,58582,999,934,0,-.368E-5,0
OVZON-3,2024-003A,2026-06-18T21:15:05.421024,1.00274291,.0000232,0.0089,64.5534,278.1031,302.9116,0,U,58698,999,746,0,.45E-6,0
INSAT-3DS,2024-033A,2026-06-19T01:17:23.707104,1.00271092,.0001101,0.0458,107.2334,328.7504,292.7453,0,U,58990,999,4708,0,-.162E-5,0
MERAH PUTIH 2,2024-035A,2026-06-19T06:34:11.809056,1.00266233,.00010899,0.0160,358.4011,81.7200,38.8709,0,U,58995,999,861,0,0,0
TJS-11,2024-037A,2026-06-19T05:49:09.859008,1.00274737,.0003186,4.1961,327.1248,106.6331,33.6230,0,U,59020,999,860,0,-.371E-5,0
HULIANWAN GAOGUI-01 (HG-01),2024-040A,2026-06-18T01:06:18.317376,1.00271503,.00028349,0.0671,331.6116,65.8323,278.9846,0,U,59069,999,733,0,.15E-5,0
EUTELSAT 36D,2024-059A,2026-06-19T06:12:12.189888,1.00269869,.00001428,0.0182,28.4335,163.0650,204.9050,0,U,59346,999,816,0,.149E-5,0
PAKSAT-MM1,2024-104A,2026-06-18T23:22:12.399168,1.00268619,.00025075,0.0346,88.1832,343.6472,224.1221,0,U,59915,999,754,0,.147E-5,0
ASTRA 1P (SES-24),2024-115A,2026-06-18T14:43:27.187968,1.00269660,.00009041,0.0576,354.9073,341.5376,170.4799,0,U,60086,999,721,0,.113E-5,0
GOES 19,2024-119A,2026-06-19T05:27:20.865312,1.00270717,.00003729,0.0407,169.2537,359.8716,104.9732,0,U,60133,999,698,0,-.254E-5,0
ZHONGXING-3A,2024-122A,2026-06-17T20:37:30.583200,1.00271597,.0001093,0.0418,104.0163,21.3241,191.7088,0,U,60179,999,731,0,-.319E-5,0
TURKSAT 6A,2024-127A,2026-06-19T04:31:11.006112,1.00271338,.00015355,0.0505,188.7392,302.7949,245.6578,0,U,60233,999,703,0,.14E-5,0
HULIANWAN GAOGUI-02 (HG-02),2024-135A,2026-06-17T12:26:38.820768,1.00267686,.0007308,0.0433,1.4713,5.2904,238.8047,0,U,60327,999,750,0,-.179E-5,0
ZHONGXING-4A,2024-151A,2026-06-19T06:35:41.665056,1.00272667,.0000086,1.3079,270.8111,161.3457,52.4950,0,U,60606,999,677,0,-.368E-5,0
HULIANWAN GAOGUI-03 (HG-03),2024-181A,2026-06-17T09:44:38.705856,1.00271733,.0001152,0.0466,2.9842,86.9142,244.7856,0,U,61503,999,682,0,-.246E-5,0
DSN-3 (KIRAMEKI-3),2024-198A,2026-06-19T05:00:23.128128,1.00271232,.00004735,0.0118,49.5085,46.7714,30.3105,0,U,61733,999,594,0,-.256E-5,0
KOREASAT 6A,2024-206A,2026-06-18T23:44:25.268640,1.00269676,.00007926,0.0211,88.7926,332.4282,318.1093,0,U,61910,999,585,0,-.368E-5,0
OPTUS-X (ADS-01),2024-212A,2026-06-18T18:47:51.695808,1.00270222,.00018933,0.0164,300.6025,192.4521,212.2999,0,U,62006,999,577,0,-.15E-5,0
GSAT-N2 (GSAT-20),2024-214A,2026-06-19T04:57:21.684672,1.00270303,.00018914,0.0444,109.5851,327.7489,332.3855,0,U,62028,999,591,0,-.25E-6,0
SXM-9,2024-234A,2026-06-18T21:04:20.027712,1.00271223,.000503,0.0124,350.0214,325.0221,182.9807,0,U,62259,999,559,0,-.211E-5,0
TJS-12,2024-246A,2026-06-19T02:14:11.380128,1.00269206,.00020735,0.6655,299.3845,83.0144,64.9988,0,U,62374,999,558,0,-.238E-5,0
NUVIEW ALPHA,2024-252B,2026-06-19T06:20:07.444320,1.00272445,.0001089,0.0529,32.3585,35.0526,212.0367,0,U,62455,999,384,0,-.222E-5,0
AGILA,2024-252C,2026-06-18T20:29:23.378784,1.00270941,.0001151,0.0619,127.0545,331.5839,267.9525,0,U,62456,999,517,0,-.188E-5,0
